{"type": "FeatureCollection", "features": [ {"type": "Feature", "properties": {"norad_id": 30283, "name": "FENGYUN 1C DEB", "group": "fengyun-1c-debris", "lat": 35.15100773781916, "lon": -179.00539005982995, "alt_km": 988.5412601195139, "timestamp": "2025-12-27T09:28:56.751621+00:00", "meta": {"OBJECT_NAME": "FENGYUN 1C DEB", "OBJECT_ID": "1999-025YU", "EPOCH": "2025-12-26T22:37:18.823008", "MEAN_MOTION": 14.01979767, "ECCENTRICITY": 0.0183958, "INCLINATION": 98.8671, "RA_OF_ASC_NODE": 354.2436, "ARG_OF_PERICENTER": 3.7802, "MEAN_ANOMALY": 16.4933, "EPHEMERIS_TYPE": 0, "CLASSIFICATION_TYPE": "U", "NORAD_CAT_ID": 30283, "ELEMENT_SET_NO": 999, "REV_AT_EPOCH": 96890, "BSTAR": 0.00014183, "MEAN_MOTION_DOT": 2.07e-06, "MEAN_MOTION_DDOT": 0}, "tle": {"line1": "1 30283U 99025YU  25360.94257897  .00000207  00000+0  14183-3 0  9996", "line2": "2 30283  98.8671 354.2436 0183958   3.7802  16.4933 14.01979767968907"}}, "geometry": {"type": "Point", "coordinates": [-179.00539005982995, 35.15100773781916]}}, {"type": "Feature", "properties": {"norad_id": 30284, "name": "FENGYUN 1C DEB", "group": "fengyun-1c-debris", "lat": -23.04884400058787, "lon": 73.5753039891511, "alt_km": 800.7474365741882, "timestamp": "2025-12-27T09:28:56.751632+00:00", "meta": {"OBJECT_NAME": "FENGYUN 1C DEB", "OBJECT_ID": "1999-025YV", "EPOCH": "2025-12-27T04:51:08.758944", "MEAN_MOTION": 14.28860326, "ECCENTRICITY": 0.0036747, "INCLINATION": 98.7191, "RA_OF_ASC_NODE": 69.6387, "ARG_OF_PERICENTER": 67.1694, "MEAN_ANOMALY": 358.2501, "EPHEMERIS_TYPE": 0, "CLASSIFICATION_TYPE": "U", "NORAD_CAT_ID": 30284, "ELEMENT_SET_NO": 999, "REV_AT_EPOCH": 97722, "BSTAR": 0.0015751, "MEAN_MOTION_DOT": 3.96e-05, "MEAN_MOTION_DDOT": 0}, "tle": {"line1": "1 30284U 99025YV  25361.20218471  .00003960  00000+0  15751-2 0  9992", "line2": "2 30284  98.7191  69.6387 0036747  67.1694 358.2501 14.28860326977224"}}, "geometry": {"type": "Point", "coordinates": [73.5753039891511, -23.04884400058787]}}, {"type": "Feature", "properties": {"norad_id": 30286, "name": "FENGYUN 1C DEB", "group": "fengyun-1c-debris", "lat": -76.95337372928046, "lon": 46.62237827090715, "alt_km": 903.8612634650781, "timestamp": "2025-12-27T09:28:56.751642+00:00", "meta": {"OBJECT_NAME": "FENGYUN 1C DEB", "OBJECT_ID": "1999-025YX", "EPOCH": "2025-12-26T22:15:46.019808", "MEAN_MOTION": 14.12728513, "ECCENTRICITY": 0.006499, "INCLINATION": 98.6902, "RA_OF_ASC_NODE": 4.8675, "ARG_OF_PERICENTER": 92.9434, "MEAN_ANOMALY": 330.7326, "EPHEMERIS_TYPE": 0, "CLASSIFICATION_TYPE": "U", "NORAD_CAT_ID": 30286, "ELEMENT_SET_NO": 999, "REV_AT_EPOCH": 97659, "BSTAR": 9.7417e-05, "MEAN_MOTION_DOT": 1.42e-06, "MEAN_MOTION_DDOT": 0}, "tle": {"line1": "1 30286U 99025YX  25360.92761597  .00000142  00000+0  97417-4 0  9994", "line2": "2 30286  98.6902   4.8675 0064990  92.9434 330.7326 14.12728513976598"}}, "geometry": {"type": "Point", "coordinates": [46.62237827090715, -76.95337372928046]}}, {"type": "Feature", "properties": {"norad_id": 30287, "name": "FENGYUN 1C DEB", "group": "fengyun-1c-debris", "lat": -30.132583137108828, "lon": 39.18701813174377, "alt_km": 706.1302796453192, "timestamp": "2025-12-27T09:28:56.751652+00:00", "meta": {"OBJECT_NAME": "FENGYUN 1C DEB", "OBJECT_ID": "1999-025YY", "EPOCH": "2025-12-27T01:10:53.592096", "MEAN_MOTION": 13.68632651, "ECCENTRICITY": 0.0412789, "INCLINATION": 98.6365, "RA_OF_ASC_NODE": 33.8153, "ARG_OF_PERICENTER": 334.2264, "MEAN_ANOMALY": 92.453, "EPHEMERIS_TYPE": 0, "CLASSIFICATION_TYPE": "U", "NORAD_CAT_ID": 30287, "ELEMENT_SET_NO": 999, "REV_AT_EPOCH": 94054, "BSTAR": 0.0011053, "MEAN_MOTION_DOT": 1.684e-05, "MEAN_MOTION_DDOT": 0}, "tle": {"line1": "1 30287U 99025YY  25361.04923139  .00001684  00000+0  11053-2 0  9993", "line2": "2 30287  98.6365  33.8153 0412789 334.2264  92.4530 13.68632651940543"}}, "geometry": {"type": "Point", "coordinates": [39.18701813174377, -30.132583137108828]}}, {"type": "Feature", "properties": {"norad_id": 30288, "name": "FENGYUN 1C DEB", "group": "fengyun-1c-debris", "lat": 24.906990196561164, "lon": 79.85702599396723, "alt_km": 786.6585522552268, "timestamp": "2025-12-27T09:28:56.751663+00:00", "meta": {"OBJECT_NAME": "FENGYUN 1C DEB", "OBJECT_ID": "1999-025YZ", "EPOCH": "2025-12-27T04:28:34.611744", "MEAN_MOTION": 14.32720595, "ECCENTRICITY": 0.0021982, "INCLINATION": 99.3943, "RA_OF_ASC_NODE": 84.0399, "ARG_OF_PERICENTER": 278.0948, "MEAN_ANOMALY": 111.7747, "EPHEMERIS_TYPE": 0, "CLASSIFICATION_TYPE": "U", "NORAD_CAT_ID": 30288, "ELEMENT_SET_NO": 999, "REV_AT_EPOCH": 97776, "BSTAR": 0.0022018, "MEAN_MOTION_DOT": 5.963e-05, "MEAN_MOTION_DDOT": 0}, "tle": {"line1": "1 30288U 99025YZ  25361.18651171  .00005963  00000+0  22018-2 0  9990", "line2": "2 30288  99.3943  84.0399 0021982 278.0948 111.7747 14.32720595977765"}}, "geometry": {"type": "Point", "coordinates": [79.85702599396723, 24.906990196561164]}}, {"type": "Feature", "properties": {"norad_id": 30289, "name": "FENGYUN 1C DEB", "group": "fengyun-1c-debris", "lat": 21.769767115043802, "lon": -78.24744410296015, "alt_km": 822.0675933278035, "timestamp": "2025-12-27T09:28:56.751673+00:00", "meta": {"OBJECT_NAME": "FENGYUN 1C DEB", "OBJECT_ID": "1999-025ZA", "EPOCH": "2025-12-27T02:34:26.070816", "MEAN_MOTION": 14.25957922, "ECCENTRICITY": 0.0038379, "INCLINATION": 98.9253, "RA_OF_ASC_NODE": 97.8613, "ARG_OF_PERICENTER": 287.1352, "MEAN_ANOMALY": 194.1948, "EPHEMERIS_TYPE": 0, "CLASSIFICATION_TYPE": "U", "NORAD_CAT_ID": 30289, "ELEMENT_SET_NO": 999, "REV_AT_EPOCH": 97286, "BSTAR": 0.0024618, "MEAN_MOTION_DOT": 5.873e-05, "MEAN_MOTION_DDOT": 0}, "tle": {"line1": "1 30289U 99025ZA  25361.10724619  .00005873  00000+0  24618-2 0  9999", "line2": "2 30289  98.9253  97.8613 0038379 287.1352 194.1948 14.25957922972866"}}, "geometry": {"type": "Point", "coordinates": [-78.24744410296015, 21.769767115043802]}}, {"type": "Feature", "properties": {"norad_id": 30290, "name": "FENGYUN 1C DEB", "group": "fengyun-1c-debris", "lat": -10.792682094535055, "lon": 113.76327487488294, "alt_km": 634.6368898831815, "timestamp": "2025-12-27T09:28:56.751683+00:00", "meta": {"OBJECT_NAME": "FENGYUN 1C DEB", "OBJECT_ID": "1999-025ZB", "EPOCH": "2025-12-27T02:11:37.468032", "MEAN_MOTION": 14.75815185, "ECCENTRICITY": 0.0017513, "INCLINATION": 102.6208, "RA_OF_ASC_NODE": 110.8435, "ARG_OF_PERICENTER": 3.0742, "MEAN_ANOMALY": 173.323, "EPHEMERIS_TYPE": 0, "CLASSIFICATION_TYPE": "U", "NORAD_CAT_ID": 30290, "ELEMENT_SET_NO": 999, "REV_AT_EPOCH": 98090, "BSTAR": 0.0060991, "MEAN_MOTION_DOT": 0.00042104, "MEAN_MOTION_DDOT": 0}, "tle": {"line1": "1 30290U 99025ZB  25361.09140588  .00042104  00000+0  60991-2 0  9998", "line2": "2 30290 102.6208 110.8435 0017513   3.0742 173.3230 14.75815185980900"}}, "geometry": {"type": "Point", "coordinates": [113.76327487488294, -10.792682094535055]}}, {"type": "Feature", "properties": {"norad_id": 30291, "name": "FENGYUN 1C DEB", "group": "fengyun-1c-debris", "lat": 76.79497957021294, "lon": 100.99751081420402, "alt_km": 747.4476634531093, "timestamp": "2025-12-27T09:28:56.751694+00:00", "meta": {"OBJECT_NAME": "FENGYUN 1C DEB", "OBJECT_ID": "1999-025ZC", "EPOCH": "2025-12-27T04:46:11.059104", "MEAN_MOTION": 14.55616988, "ECCENTRICITY": 0.0110187, "INCLINATION": 97.2322, "RA_OF_ASC_NODE": 248.0629, "ARG_OF_PERICENTER": 333.8684, "MEAN_ANOMALY": 177.823, "EPHEMERIS_TYPE": 0, "CLASSIFICATION_TYPE": "U", "NORAD_CAT_ID": 30291, "ELEMENT_SET_NO": 999, "REV_AT_EPOCH": 97918, "BSTAR": 0.0037734, "MEAN_MOTION_DOT": 0.00017869, "MEAN_MOTION_DDOT": 0}, "tle": {"line1": "1 30291U 99025ZC  25361.19873911  .00017869  00000+0  37734-2 0  9992", "line2": "2 30291  97.2322 248.0629 0110187 333.8684 177.8230 14.55616988979181"}}, "geometry": {"type": "Point", "coordinates": [100.99751081420402, 76.79497957021294]}}, {"type": "Feature", "properties": {"norad_id": 30293, "name": "FENGYUN 1C DEB", "group": "fengyun-1c-debris", "lat": 18.63246053796743, "lon": -169.42369453935848, "alt_km": 695.4969146272488, "timestamp": "2025-12-27T09:28:56.751704+00:00", "meta": {"OBJECT_NAME": "FENGYUN 1C DEB", "OBJECT_ID": "1999-025ZE", "EPOCH": "2025-12-26T18:33:00.872928", "MEAN_MOTION": 14.49020799, "ECCENTRICITY": 0.00767886, "INCLINATION": 99.2549, "RA_OF_ASC_NODE": 193.0461, "ARG_OF_PERICENTER": 73.2372, "MEAN_ANOMALY": 302.7406, "EPHEMERIS_TYPE": 0, "CLASSIFICATION_TYPE": "U", "NORAD_CAT_ID": 30293, "ELEMENT_SET_NO": 999, "REV_AT_EPOCH": 99180, "BSTAR": 0.00072284807, "MEAN_MOTION_DOT": 2.792e-05, "MEAN_MOTION_DDOT": 0}, "tle": {"line1": "1 30293U 99025ZE  25360.77292677  .00002792  00000+0  72285-3 0  9991", "line2": "2 30293  99.2549 193.0461 0076788  73.2372 302.7406 14.49020799991805"}}, "geometry": {"type": "Point", "coordinates": [-169.42369453935848, 18.63246053796743]}}, {"type": "Feature", "properties": {"norad_id": 30294, "name": "FENGYUN 1C DEB", "group": "fengyun-1c-debris", "lat": -75.24671594255284, "lon": 23.11172659106127, "alt_km": 646.9891341574312, "timestamp": "2025-12-27T09:28:56.751714+00:00", "meta": {"OBJECT_NAME": "FENGYUN 1C DEB", "OBJECT_ID": "1999-025ZF", "EPOCH": "2025-12-26T19:21:09.355392", "MEAN_MOTION": 14.34987191, "ECCENTRICITY": 0.01970827, "INCLINATION": 98.3573, "RA_OF_ASC_NODE": 348.6088, "ARG_OF_PERICENTER": 267.4966, "MEAN_ANOMALY": 214.4333, "EPHEMERIS_TYPE": 0, "CLASSIFICATION_TYPE": "U", "NORAD_CAT_ID": 30294, "ELEMENT_SET_NO": 999, "REV_AT_EPOCH": 98738, "BSTAR": 0.0003497717, "MEAN_MOTION_DOT": 1.19e-05, "MEAN_MOTION_DDOT": 0}, "tle": {"line1": "1 30294U 99025ZF  25360.80635828  .00001190  00000+0  34977-3 0  9992", "line2": "2 30294  98.3573 348.6088 0197082 267.4966 214.4333 14.34987191987381"}}, "geometry": {"type": "Point", "coordinates": [23.11172659106127, -75.24671594255284]}}]}